CCSDS_OMM_VERS = 2.0
CREATION_DATE  = 
ORIGINATOR     = 

OBJECT_NAME    = SL-14 R/B
OBJECT_ID      = 1991-042B
CENTER_NAME    = EARTH
REF_FRAME      = TEME
TIME_SYSTEM    = UTC
MEAN_ELEMENT_THEORY = SGP/SGP4

EPOCH          = 2026-01-14T03:04:59.065824
MEAN_MOTION    = 14.81773478
ECCENTRICITY   = .00184554
INCLINATION    = 82.4929
RA_OF_ASC_NODE = 271.3552
ARG_OF_PERICENTER = 62.6970
MEAN_ANOMALY   = 297.6121

EPHEMERIS_TYPE = 0
CLASSIFICATION_TYPE = U
NORAD_CAT_ID   = 21423
ELEMENT_SET_NO = 999
REV_AT_EPOCH   = 84499
BSTAR          = .35579351E-4
MEAN_MOTION_DOT = .305E-5
MEAN_MOTION_DDOT = 0

CCSDS_OMM_VERS = 2.0
CREATION_DATE  = 
ORIGINATOR     = 

OBJECT_NAME    = ERS-1
OBJECT_ID      = 1991-050A
CENTER_NAME    = EARTH
REF_FRAME      = TEME
TIME_SYSTEM    = UTC
MEAN_ELEMENT_THEORY = SGP/SGP4

EPOCH          = 2026-01-14T13:08:26.804544
MEAN_MOTION    = 14.39395439
ECCENTRICITY   = .00320393
INCLINATION    = 98.7898
RA_OF_ASC_NODE = 31.4223
ARG_OF_PERICENTER = 4.8776
MEAN_ANOMALY   = 355.2717

EPHEMERIS_TYPE = 0
CLASSIFICATION_TYPE = U
NORAD_CAT_ID   = 21574
ELEMENT_SET_NO = 999
REV_AT_EPOCH   = 80794
BSTAR          = .85003154E-4
MEAN_MOTION_DOT = .219E-5
MEAN_MOTION_DDOT = 0

CCSDS_OMM_VERS = 2.0
CREATION_DATE  = 
ORIGINATOR     = 

OBJECT_NAME    = ARIANE 40 R/B
OBJECT_ID      = 1991-050F
CENTER_NAME    = EARTH
REF_FRAME      = TEME
TIME_SYSTEM    = UTC
MEAN_ELEMENT_THEORY = SGP/SGP4

EPOCH          = 2026-01-14T02:28:20.703360
MEAN_MOTION    = 14.42843595
ECCENTRICITY   = .00022787
INCLINATION    = 98.2119
RA_OF_ASC_NODE = 68.3586
ARG_OF_PERICENTER = 222.0576
MEAN_ANOMALY   = 138.0440

EPHEMERIS_TYPE = 0
CLASSIFICATION_TYPE = U
NORAD_CAT_ID   = 21610
ELEMENT_SET_NO = 999
REV_AT_EPOCH   = 81112
BSTAR          = .76103761E-4
MEAN_MOTION_DOT = .212E-5
MEAN_MOTION_DDOT = 0

CCSDS_OMM_VERS = 2.0
CREATION_DATE  = 
ORIGINATOR     = 

OBJECT_NAME    = INTERCOSMOS 25
OBJECT_ID      = 1991-086A
CENTER_NAME    = EARTH
REF_FRAME      = TEME
TIME_SYSTEM    = UTC
MEAN_ELEMENT_THEORY = SGP/SGP4

EPOCH          = 2026-01-14T09:54:06.777216
MEAN_MOTION    = 12.11853461
ECCENTRICITY   = .14859881
INCLINATION    = 82.6086
RA_OF_ASC_NODE = 342.8120
ARG_OF_PERICENTER = 233.9200
MEAN_ANOMALY   = 111.5174

EPHEMERIS_TYPE = 0
CLASSIFICATION_TYPE = U
NORAD_CAT_ID   = 21819
ELEMENT_SET_NO = 999
REV_AT_EPOCH   = 49011
BSTAR          = .19470596E-3
MEAN_MOTION_DOT = .983E-5
MEAN_MOTION_DDOT = 0

CCSDS_OMM_VERS = 2.0
CREATION_DATE  = 
ORIGINATOR     = 

OBJECT_NAME    = SL-8 R/B
OBJECT_ID      = 1992-008B
CENTER_NAME    = EARTH
REF_FRAME      = TEME
TIME_SYSTEM    = UTC
MEAN_ELEMENT_THEORY = SGP/SGP4

EPOCH          = 2026-01-14T08:09:36.000000
MEAN_MOTION    = 13.75966137
ECCENTRICITY   = .00334284
INCLINATION    = 82.9289
RA_OF_ASC_NODE = 308.2013
ARG_OF_PERICENTER = 287.5161
MEAN_ANOMALY   = 185.8551

EPHEMERIS_TYPE = 0
CLASSIFICATION_TYPE = U
NORAD_CAT_ID   = 21876
ELEMENT_SET_NO = 999
REV_AT_EPOCH   = 70194
BSTAR          = .47366345E-4
MEAN_MOTION_DOT = .61E-6
MEAN_MOTION_DDOT = 0

CCSDS_OMM_VERS = 2.0
CREATION_DATE  = 
ORIGINATOR     = 

OBJECT_NAME    = SL-8 R/B
OBJECT_ID      = 1992-020B
CENTER_NAME    = EARTH
REF_FRAME      = TEME
TIME_SYSTEM    = UTC
MEAN_ELEMENT_THEORY = SGP/SGP4

EPOCH          = 2026-01-14T13:47:50.483040
MEAN_MOTION    = 13.75537600
ECCENTRICITY   = .00302598
INCLINATION    = 82.9294
RA_OF_ASC_NODE = 193.9335
ARG_OF_PERICENTER = 89.0705
MEAN_ANOMALY   = 336.1908

EPHEMERIS_TYPE = 0
CLASSIFICATION_TYPE = U
NORAD_CAT_ID   = 21938
ELEMENT_SET_NO = 999
REV_AT_EPOCH   = 69369
BSTAR          = .1404183E-3
MEAN_MOTION_DOT = .151E-5
MEAN_MOTION_DDOT = 0

CCSDS_OMM_VERS = 2.0
CREATION_DATE  = 
ORIGINATOR     = 

OBJECT_NAME    = USA 81
OBJECT_ID      = 1992-023A
CENTER_NAME    = EARTH
REF_FRAME      = TEME
TIME_SYSTEM    = UTC
MEAN_ELEMENT_THEORY = SGP/SGP4

EPOCH          = 2026-01-14T12:26:50.368992
MEAN_MOTION    = 14.32342016
ECCENTRICITY   = .0001678
INCLINATION    = 85.0101
RA_OF_ASC_NODE = 162.6728
ARG_OF_PERICENTER = 117.7323
MEAN_ANOMALY   = 242.4040

EPHEMERIS_TYPE = 0
CLASSIFICATION_TYPE = U
NORAD_CAT_ID   = 21949
ELEMENT_SET_NO = 999
REV_AT_EPOCH   = 8703
BSTAR          = .49184656E-4
MEAN_MOTION_DOT = .153E-5
MEAN_MOTION_DDOT = 0

CCSDS_OMM_VERS = 2.0
CREATION_DATE  = 
ORIGINATOR     = 

OBJECT_NAME    = COSMOS 2219
OBJECT_ID      = 1992-076A
CENTER_NAME    = EARTH
REF_FRAME      = TEME
TIME_SYSTEM    = UTC
MEAN_ELEMENT_THEORY = SGP/SGP4

EPOCH          = 2026-01-14T13:08:23.273376
MEAN_MOTION    = 14.14081329
ECCENTRICITY   = .0020661
INCLINATION    = 71.0619
RA_OF_ASC_NODE = 131.2529
ARG_OF_PERICENTER = 281.8698
MEAN_ANOMALY   = 78.0108

EPHEMERIS_TYPE = 0
CLASSIFICATION_TYPE = U
NORAD_CAT_ID   = 22219
ELEMENT_SET_NO = 999
REV_AT_EPOCH   = 71072
BSTAR          = -.459861E-6
MEAN_MOTION_DOT = -.48E-6
MEAN_MOTION_DDOT = 0

CCSDS_OMM_VERS = 2.0
CREATION_DATE  = 
ORIGINATOR     = 

OBJECT_NAME    = SL-16 R/B
OBJECT_ID      = 1992-076B
CENTER_NAME    = EARTH
REF_FRAME      = TEME
TIME_SYSTEM    = UTC
MEAN_ELEMENT_THEORY = SGP/SGP4

EPOCH          = 2026-01-14T06:50:00.142368
MEAN_MOTION    = 14.16849278
ECCENTRICITY   = .00130001
INCLINATION    = 71.0015
RA_OF_ASC_NODE = 302.9769
ARG_OF_PERICENTER = 188.5390
MEAN_ANOMALY   = 338.2996

EPHEMERIS_TYPE = 0
CLASSIFICATION_TYPE = U
NORAD_CAT_ID   = 22220
ELEMENT_SET_NO = 999
REV_AT_EPOCH   = 71412
BSTAR          = .11524484E-3
MEAN_MOTION_DOT = .183E-5
MEAN_MOTION_DDOT = 0

CCSDS_OMM_VERS = 2.0
CREATION_DATE  = 
ORIGINATOR     = 

OBJECT_NAME    = COSMOS 2221
OBJECT_ID      = 1992-080A
CENTER_NAME    = EARTH
REF_FRAME      = TEME
TIME_SYSTEM    = UTC
MEAN_ELEMENT_THEORY = SGP/SGP4

EPOCH          = 2026-01-14T09:29:00.472704
MEAN_MOTION    = 14.95924672
ECCENTRICITY   = .00152629
INCLINATION    = 82.5056
RA_OF_ASC_NODE = 331.0660
ARG_OF_PERICENTER = 21.7293
MEAN_ANOMALY   = 338.4573

EPHEMERIS_TYPE = 0
CLASSIFICATION_TYPE = U
NORAD_CAT_ID   = 22236
ELEMENT_SET_NO = 999
REV_AT_EPOCH   = 77267
BSTAR          = .14473487E-3
MEAN_MOTION_DOT = .1649E-4
MEAN_MOTION_DDOT = 0

CCSDS_OMM_VERS = 2.0
CREATION_DATE  = 
ORIGINATOR     = 

OBJECT_NAME    = SL-16 R/B
OBJECT_ID      = 1992-093B
CENTER_NAME    = EARTH
REF_FRAME      = TEME
TIME_SYSTEM    = UTC
MEAN_ELEMENT_THEORY = SGP/SGP4

EPOCH          = 2026-01-14T12:50:55.162752
MEAN_MOTION    = 14.15436572
ECCENTRICITY   = .0003669
INCLINATION    = 71.0221
RA_OF_ASC_NODE = 117.9531
ARG_OF_PERICENTER = 358.6915
MEAN_ANOMALY   = 1.4198

EPHEMERIS_TYPE = 0
CLASSIFICATION_TYPE = U
NORAD_CAT_ID   = 22285
ELEMENT_SET_NO = 999
REV_AT_EPOCH   = 70549
BSTAR          = .16235303E-3
MEAN_MOTION_DOT = .269E-5
MEAN_MOTION_DDOT = 0

CCSDS_OMM_VERS = 2.0
CREATION_DATE  = 
ORIGINATOR     = 

OBJECT_NAME    = COSMOS 2228
OBJECT_ID      = 1992-094A
CENTER_NAME    = EARTH
REF_FRAME      = TEME
TIME_SYSTEM    = UTC
MEAN_ELEMENT_THEORY = SGP/SGP4

EPOCH          = 2026-01-14T13:56:07.586304
MEAN_MOTION    = 14.96907629
ECCENTRICITY   = .0019322
INCLINATION    = 82.5190
RA_OF_ASC_NODE = 289.1121
ARG_OF_PERICENTER = 120.7031
MEAN_ANOMALY   = 239.6099

EPHEMERIS_TYPE = 0
CLASSIFICATION_TYPE = U
NORAD_CAT_ID   = 22286
ELEMENT_SET_NO = 999
REV_AT_EPOCH   = 76796
BSTAR          = .1286225E-3
MEAN_MOTION_DOT = .1508E-4
MEAN_MOTION_DDOT = 0

