SL-14 R/B               
1 21423U 91042B   26014.12846141  .00000305  00000+0  35579-4 0  9998
2 21423  82.4929 271.3552 0018455  62.6970 297.6121 14.81773478844998
ERS-1                   
1 21574U 91050A   26014.54753246  .00000219  00000+0  85003-4 0  9994
2 21574  98.7898  31.4223 0032039   4.8776 355.2717 14.39395439807942
ARIANE 40 R/B           
1 21610U 91050F   26014.10301740  .00000212  00000+0  76104-4 0  9990
2 21610  98.2119  68.3586 0002278 222.0576 138.0440 14.42843595811129
INTERCOSMOS 25          
1 21819U 91086A   26014.41257844  .00000983  00000+0  19471-3 0  9997
2 21819  82.6086 342.8120 1485988 233.9200 111.5174 12.11853461490112
SL-8 R/B                
1 21876U 92008B   26014.34000000  .00000061  00000+0  47366-4 0  9999
2 21876  82.9289 308.2013 0033428 287.5161 185.8551 13.75966137701943
SL-8 R/B                
1 21938U 92020B   26014.57488985  .00000151  00000+0  14042-3 0  9993
2 21938  82.9294 193.9335 0030259  89.0705 336.1908 13.75537600693690
USA 81                  
1 21949U 92023A   26014.51863853  .00000153  00000+0  49185-4 0  9992
2 21949  85.0101 162.6728 0001678 117.7323 242.4040 14.32342016 87030
COSMOS 2219             
1 22219U 92076A   26014.54749159 -.00000048  00000+0 -45986-6 0  9998
2 22219  71.0619 131.2529 0020661 281.8698  78.0108 14.14081329710726
SL-16 R/B               
1 22220U 92076B   26014.28472387  .00000183  00000+0  11524-3 0  9993
2 22220  71.0015 302.9769 0013000 188.5390 338.2996 14.16849278714123
COSMOS 2221             
1 22236U 92080A   26014.39514436  .00001649  00000+0  14473-3 0  9993
2 22236  82.5056 331.0660 0015262  21.7293 338.4573 14.95924672772673
SL-16 R/B               
1 22285U 92093B   26014.53536068  .00000269  00000+0  16235-3 0  9997
2 22285  71.0221 117.9531 0003669 358.6915   1.4198 14.15436572705498
COSMOS 2228             
1 22286U 92094A   26014.58064336  .00001508  00000+0  12862-3 0  9997
2 22286  82.5190 289.1121 0019322 120.7031 239.6099 14.96907629767968
